start=new Date('2021-12-28T00:00:00.000Z').valueOf();
sats=[{"MEAN_MOTION":"15.06401396","OBJECT_ID":"2020-019Q","OBJECT_NAME":"STARLINK-1300","EPHEMERIS_TYPE":"0","APOAPSIS":"548.992","INCLINATION":"53.0530","COUNTRY_CODE":"US","CENTER_NAME":"EARTH","RA_OF_ASC_NODE":"207.6584","TLE_LINE1":"1 45374U 20019Q   21361.88314065 -.00000116  00000-0  11176-4 0  9992","REV_AT_EPOCH":"9870","OBJECT_TYPE":"PAYLOAD","PERIAPSIS":"545.427","EPOCH":"2021-12-27T21:11:43.352160","MEAN_ANOMALY":"279.9440","SEMIMAJOR_AXIS":"6925.344","NORAD_CAT_ID":"45374","MEAN_MOTION_DDOT":"0.0000000000000","ARG_OF_PERICENTER":"80.1840","BSTAR":"0.00001117600000","TIME_SYSTEM":"UTC","ECCENTRICITY":"0.00025740","RCS_SIZE":"LARGE","GP_ID":"192601770","LAUNCH_DATE":"2020-03-18","TLE_LINE2":"2 45374  53.0530 207.6584 0002574  80.1840 279.9440 15.06401396 98706","MEAN_MOTION_DOT":"-0.00000116","ELEMENT_SET_NO":"999","SITE":"AFETR","PERIOD":"95.592","CLASSIFICATION_TYPE":"U","FILE":"3253114","REF_FRAME":"TEME","MEAN_ELEMENT_THEORY":"SGP4","DECAY_DATE":null},{"MEAN_MOTION_DDOT":"0.0000000000000","ARG_OF_PERICENTER":"78.0303","ECCENTRICITY":"0.00023240","RCS_SIZE":"LARGE","BSTAR":"0.00000882450000","TIME_SYSTEM":"UTC","EPOCH":"2021-12-27T21:32:57.329664","OBJECT_TYPE":"PAYLOAD","PERIAPSIS":"545.621","NORAD_CAT_ID":"45375","SEMIMAJOR_AXIS":"6925.366","MEAN_ANOMALY":"282.0946","INCLINATION":"53.0538","CENTER_NAME":"EARTH","COUNTRY_CODE":"US","APOAPSIS":"548.840","EPHEMERIS_TYPE":"0","TLE_LINE1":"1 45375U 20019R   21361.89788576 -.00000150  00000-0  88245-5 0  9996","REV_AT_EPOCH":"9870","RA_OF_ASC_NODE":"207.5992","MEAN_MOTION":"15.06394430","OBJECT_ID":"2020-019R","OBJECT_NAME":"STARLINK-1302","REF_FRAME":"TEME","MEAN_ELEMENT_THEORY":"SGP4","DECAY_DATE":null,"FILE":"3253114","MEAN_MOTION_DOT":"-0.00000150","TLE_LINE2":"2 45375  53.0538 207.5992 0002324  78.0303 282.0946 15.06394430 98706","CLASSIFICATION_TYPE":"U","PERIOD":"95.592","SITE":"AFETR","ELEMENT_SET_NO":"999","GP_ID":"192602018","LAUNCH_DATE":"2020-03-18"},{"PERIAPSIS":"545.779","OBJECT_TYPE":"PAYLOAD","EPOCH":"2021-12-27T20:23:57.166080","NORAD_CAT_ID":"45376","SEMIMAJOR_AXIS":"6925.343","MEAN_ANOMALY":"287.7230","MEAN_MOTION_DDOT":"0.0000000000000","ARG_OF_PERICENTER":"72.3984","BSTAR":"0.00003664800000","TIME_SYSTEM":"UTC","ECCENTRICITY":"0.00020630","RCS_SIZE":"LARGE","MEAN_MOTION":"15.06401849","OBJECT_ID":"2020-019S","OBJECT_NAME":"STARLINK-1304","APOAPSIS":"548.637","EPHEMERIS_TYPE":"0","INCLINATION":"53.0539","CENTER_NAME":"EARTH","COUNTRY_CODE":"US","RA_OF_ASC_NODE":"207.8117","TLE_LINE1":"1 45376U 20019S   21361.84996720  .00000264  00000-0  36648-4 0  9998","REV_AT_EPOCH":"9869","FILE":"3253114","REF_FRAME":"TEME","MEAN_ELEMENT_THEORY":"SGP4","DECAY_DATE":null,"GP_ID":"192602266","LAUNCH_DATE":"2020-03-18","TLE_LINE2":"2 45376  53.0539 207.8117 0002063  72.3984 287.7230 15.06401849 98691","MEAN_MOTION_DOT":"0.00000264","ELEMENT_SET_NO":"999","SITE":"AFETR","CLASSIFICATION_TYPE":"U","PERIOD":"95.592"},{"RCS_SIZE":"LARGE","ECCENTRICITY":"0.00024490","TIME_SYSTEM":"UTC","BSTAR":"0.00000202480000","ARG_OF_PERICENTER":"81.5329","MEAN_MOTION_DDOT":"0.0000000000000","SEMIMAJOR_AXIS":"6925.338","MEAN_ANOMALY":"278.5937","NORAD_CAT_ID":"45377","EPOCH":"2021-12-27T21:01:06.214368","OBJECT_TYPE":"PAYLOAD","PERIAPSIS":"545.507","TLE_LINE1":"1 45377U 20019T   21361.87576637 -.00000252  00000-0  20248-5 0  9991","REV_AT_EPOCH":"9870","RA_OF_ASC_NODE":"207.6879","CENTER_NAME":"EARTH","COUNTRY_CODE":"US","INCLINATION":"53.0529","APOAPSIS":"548.899","EPHEMERIS_TYPE":"0","OBJECT_NAME":"STARLINK-1305","OBJECT_ID":"2020-019T","MEAN_MOTION":"15.06403579","DECAY_DATE":null,"MEAN_ELEMENT_THEORY":"SGP4","REF_FRAME":"TEME","FILE":"3253114","PERIOD":"95.592","CLASSIFICATION_TYPE":"U","ELEMENT_SET_NO":"999","SITE":"AFETR","MEAN_MOTION_DOT":"-0.00000252","TLE_LINE2":"2 45377  53.0529 207.6879 0002449  81.5329 278.5937 15.06403579 98703","LAUNCH_DATE":"2020-03-18","GP_ID":"192603014"},{"ARG_OF_PERICENTER":"81.4694","MEAN_MOTION_DDOT":"0.0000000000000","BSTAR":"0.00000681610000","TIME_SYSTEM":"UTC","RCS_SIZE":"LARGE","ECCENTRICITY":"0.00024290","OBJECT_TYPE":"PAYLOAD","PERIAPSIS":"545.527","EPOCH":"2021-12-27T20:45:10.886112","MEAN_ANOMALY":"278.6570","SEMIMAJOR_AXIS":"6925.344","NORAD_CAT_ID":"45378","APOAPSIS":"548.891","EPHEMERIS_TYPE":"0","COUNTRY_CODE":"US","CENTER_NAME":"EARTH","INCLINATION":"53.0542","TLE_LINE1":"1 45378U 20019U   21361.86470933 -.00000180  00000-0  68161-5 0  9999","RA_OF_ASC_NODE":"207.7483","REV_AT_EPOCH":"9870","MEAN_MOTION":"15.06401569","OBJECT_ID":"2020-019U","OBJECT_NAME":"STARLINK-1310","FILE":"3253114","MEAN_ELEMENT_THEORY":"SGP4","DECAY_DATE":null,"REF_FRAME":"TEME","TLE_LINE2":"2 45378  53.0542 207.7483 0002429  81.4694 278.6570 15.06401569 98704","MEAN_MOTION_DOT":"-0.00000180","ELEMENT_SET_NO":"999","SITE":"AFETR","CLASSIFICATION_TYPE":"U","PERIOD":"95.592","GP_ID":"192601270","LAUNCH_DATE":"2020-03-18"},{"MEAN_MOTION_DDOT":"0.0000000000000","ARG_OF_PERICENTER":"76.7697","BSTAR":"0.00030982000000","TIME_SYSTEM":"UTC","ECCENTRICITY":"0.00023840","RCS_SIZE":"LARGE","OBJECT_TYPE":"PAYLOAD","PERIAPSIS":"545.548","EPOCH":"2021-12-27T22:26:02.304960","SEMIMAJOR_AXIS":"6925.334","NORAD_CAT_ID":"45379","MEAN_ANOMALY":"283.3558","APOAPSIS":"548.850","EPHEMERIS_TYPE":"0","INCLINATION":"53.0521","COUNTRY_CODE":"US","CENTER_NAME":"EARTH","REV_AT_EPOCH":"9871","TLE_LINE1":"1 45379U 20019V   21361.93474890  .00004337  00000-0  30982-3 0  9999","RA_OF_ASC_NODE":"207.4273","MEAN_MOTION":"15.06404662","OBJECT_ID":"2020-019V","OBJECT_NAME":"STARLINK-1319","FILE":"3253114","REF_FRAME":"TEME","DECAY_DATE":null,"MEAN_ELEMENT_THEORY":"SGP4","TLE_LINE2":"2 45379  53.0521 207.4273 0002384  76.7697 283.3558 15.06404662 98713","MEAN_MOTION_DOT":"0.00004337","ELEMENT_SET_NO":"999","SITE":"AFETR","PERIOD":"95.592","CLASSIFICATION_TYPE":"U","GP_ID":"192601518","LAUNCH_DATE":"2020-03-18"},{"RCS_SIZE":"LARGE","ECCENTRICITY":"0.00012570","TIME_SYSTEM":"UTC","BSTAR":"-0.00033403000000","MEAN_MOTION_DDOT":"0.0000000000000","ARG_OF_PERICENTER":"103.2964","SEMIMAJOR_AXIS":"6925.303","NORAD_CAT_ID":"45380","MEAN_ANOMALY":"256.8165","EPOCH":"2021-12-27T22:23:22.147008","PERIAPSIS":"546.298","OBJECT_TYPE":"PAYLOAD","TLE_LINE1":"1 45380U 20019W   21361.93289522 -.00005255  00000-0 -33403-3 0  9990","REV_AT_EPOCH":"9898","RA_OF_ASC_NODE":"187.4357","CENTER_NAME":"EARTH","COUNTRY_CODE":"US","INCLINATION":"53.0522","APOAPSIS":"548.039","EPHEMERIS_TYPE":"0","OBJECT_NAME":"STARLINK-1207","OBJECT_ID":"2020-019W","MEAN_MOTION":"15.06414724","MEAN_ELEMENT_THEORY":"SGP4","DECAY_DATE":null,"REF_FRAME":"TEME","FILE":"3253114","PERIOD":"95.591","CLASSIFICATION_TYPE":"U","ELEMENT_SET_NO":"999","SITE":"AFETR","MEAN_MOTION_DOT":"-0.00005255","TLE_LINE2":"2 45380  53.0522 187.4357 0001257 103.2964 256.8165 15.06414724 98985","LAUNCH_DATE":"2020-03-18","GP_ID":"192602767"},{"TLE_LINE1":"1 45381U 20019X   21361.87761207 -.00000606  00000-0 -21783-4 0  9993","REV_AT_EPOCH":"9897","RA_OF_ASC_NODE":"187.6759","APOAPSIS":"549.052","EPHEMERIS_TYPE":"0","CENTER_NAME":"EARTH","COUNTRY_CODE":"US","INCLINATION":"53.0516","OBJECT_NAME":"STARLINK-1258","MEAN_MOTION":"15.06396747","OBJECT_ID":"2020-019X","TIME_SYSTEM":"UTC","BSTAR":"-0.00002178300000","RCS_SIZE":"LARGE","ECCENTRICITY":"0.00026400","MEAN_MOTION_DDOT":"0.0000000000000","ARG_OF_PERICENTER":"86.2300","SEMIMAJOR_AXIS":"6925.359","NORAD_CAT_ID":"45381","MEAN_ANOMALY":"273.8991","OBJECT_TYPE":"PAYLOAD","PERIAPSIS":"545.395","EPOCH":"2021-12-27T21:03:45.682848","SITE":"AFETR","ELEMENT_SET_NO":"999","PERIOD":"95.592","CLASSIFICATION_TYPE":"U","TLE_LINE2":"2 45381  53.0516 187.6759 0002640  86.2300 273.8991 15.06396747 98977","MEAN_MOTION_DOT":"-0.00000606","LAUNCH_DATE":"2020-03-18","GP_ID":"192602514","FILE":"3253114","DECAY_DATE":null,"MEAN_ELEMENT_THEORY":"SGP4","REF_FRAME":"TEME"},{"TLE_LINE2":"2 45382  53.0539 187.4919 0002888  85.5844 274.5475 15.06396226 98807","MEAN_MOTION_DOT":"0.00001096","SITE":"AFETR","ELEMENT_SET_NO":"999","CLASSIFICATION_TYPE":"U","PERIOD":"95.592","GP_ID":"192601771","LAUNCH_DATE":"2020-03-18","FILE":"3253114","REF_FRAME":"TEME","MEAN_ELEMENT_THEORY":"SGP4","DECAY_DATE":null,"APOAPSIS":"549.225","EPHEMERIS_TYPE":"0","INCLINATION":"53.0539","CENTER_NAME":"EARTH","COUNTRY_CODE":"US","TLE_LINE1":"1 45382U 20019Y   21361.92186705  .00001096  00000-0  92508-4 0  9999","RA_OF_ASC_NODE":"187.4919","REV_AT_EPOCH":"9880","MEAN_MOTION":"15.06396226","OBJECT_ID":"2020-019Y","OBJECT_NAME":"STARLINK-1264","MEAN_MOTION_DDOT":"0.0000000000000","ARG_OF_PERICENTER":"85.5844","TIME_SYSTEM":"UTC","BSTAR":"0.00009250800000","ECCENTRICITY":"0.00028880","RCS_SIZE":"LARGE","PERIAPSIS":"545.225","OBJECT_TYPE":"PAYLOAD","EPOCH":"2021-12-27T22:07:29.313120","SEMIMAJOR_AXIS":"6925.360","MEAN_ANOMALY":"274.5475","NORAD_CAT_ID":"45382"},{"EPHEMERIS_TYPE":"0","APOAPSIS":"548.977","INCLINATION":"53.0514","CENTER_NAME":"EARTH","COUNTRY_CODE":"US","REV_AT_EPOCH":"9897","TLE_LINE1":"1 45383U 20019Z   21361.87023568  .00002600  00000-0  19338-3 0  9992","RA_OF_ASC_NODE":"187.7055","MEAN_MOTION":"15.06408870","OBJECT_ID":"2020-019Z","OBJECT_NAME":"STARLINK-1266","MEAN_MOTION_DDOT":"0.0000000000000","ARG_OF_PERICENTER":"85.6265","BSTAR":"0.00019338000000","TIME_SYSTEM":"UTC","ECCENTRICITY":"0.00025850","RCS_SIZE":"LARGE","OBJECT_TYPE":"PAYLOAD","PERIAPSIS":"545.396","EPOCH":"2021-12-27T20:53:08.362752","SEMIMAJOR_AXIS":"6925.321","NORAD_CAT_ID":"45383","MEAN_ANOMALY":"274.5019","TLE_LINE2":"2 45383  53.0514 187.7055 0002585  85.6265 274.5019 15.06408870 98978","MEAN_MOTION_DOT":"0.00002600","SITE":"AFETR","ELEMENT_SET_NO":"999","CLASSIFICATION_TYPE":"U","PERIOD":"95.592","GP_ID":"192602019","LAUNCH_DATE":"2020-03-18","FILE":"3253114","REF_FRAME":"TEME","DECAY_DATE":null,"MEAN_ELEMENT_THEORY":"SGP4"}];
